OBJECT_NAME,OBJECT_ID,EPOCH,MEAN_MOTION,ECCENTRICITY,INCLINATION,RA_OF_ASC_NODE,ARG_OF_PERICENTER,MEAN_ANOMALY,EPHEMERIS_TYPE,CLASSIFICATION_TYPE,NORAD_CAT_ID,ELEMENT_SET_NO,REV_AT_EPOCH,BSTAR,MEAN_MOTION_DOT,MEAN_MOTION_DDOT
STARLINK-5470,2022-175U,2026-06-02T19:14:00.326688,15.08832705,.00012901,53.1875,21.6261,64.8920,295.2206,0,U,54776,999,19277,.48577171E-4,.485E-5,0
STARLINK-5468,2022-175V,2026-06-06T20:39:03.494304,15.08832948,.0001142,53.1763,3.5800,89.6317,270.4806,0,U,54777,999,19338,-.42465E-5,-.355E-5,0
STARLINK-5450,2022-175W,2026-06-06T19:34:50.931264,15.08836149,.0001585,53.1796,349.0448,81.3236,278.7935,0,U,54778,999,19358,.29177E-4,.176E-5,0
STARLINK-5447,2022-175X,2026-06-06T19:40:13.139328,15.08773883,.0001509,53.1767,349.0676,45.3915,314.7200,0,U,54779,999,19358,-.15001E-3,-.267E-4,0
STARLINK-5449,2022-175Y,2026-06-06T19:13:37.643232,15.08836700,.0001397,53.1747,348.9505,83.5687,276.5463,0,U,54780,999,19358,-.81525E-6,-.301E-5,0
STARLINK-5443,2022-175Z,2026-06-06T19:29:32.280288,15.08825742,.0001262,53.1748,349.0153,85.7922,274.3214,0,U,54781,999,19358,.41674E-4,.375E-5,0
STARLINK-5439,2022-175AB,2026-06-06T19:24:13.809024,15.08840584,.0001783,53.1757,348.9957,99.1193,261.0000,0,U,54783,999,19358,.64596E-4,.74E-5,0
STARLINK-5442,2022-175AC,2026-06-06T20:33:41.726016,15.08872561,.0001527,53.1813,3.5529,102.6578,257.4584,0,U,54784,999,19338,.32352E-3,.4869E-4,0
STARLINK-5440,2022-175AD,2026-06-06T17:22:20.589888,15.08832926,.0001188,53.1763,309.2668,93.9619,266.1508,0,U,54785,999,19413,.20245E-4,.34E-6,0
STARLINK-5441,2022-175AF,2026-06-06T20:28:27.897024,15.08828732,.0001389,53.1788,3.5292,72.9689,287.1455,0,U,54787,999,19338,-.18382E-4,-.58E-5,0
STARLINK-5399,2022-175AG,2026-06-06T19:08:22.317792,15.08797315,.0001372,53.1742,348.9309,41.3914,318.7181,0,U,54788,999,19358,-.30357E-3,-.511E-4,0
STARLINK-5446,2022-175AH,2026-06-06T14:21:30.801024,15.08820031,.0001789,53.1751,334.7185,36.6440,323.4674,0,U,54789,999,19376,-.10778E-3,-.2002E-4,0
STARLINK-5445,2022-175AJ,2026-06-06T06:14:43.506528,15.08754560,.00003226,53.1875,351.2730,142.6248,217.4766,0,U,54790,999,19350,-.67443489E-3,-.1098E-3,0
STARLINK-5425,2022-175AK,2026-06-06T19:18:56.003040,15.08834161,.0001147,53.1730,348.9776,81.8797,278.2325,0,U,54791,999,19358,-.39902E-5,-.351E-5,0
STARLINK-5431,2022-175AL,2026-06-06T20:17:50.055072,15.08834899,.0001384,53.1755,3.4855,94.1804,265.9346,0,U,54792,999,19338,.21095E-4,.48E-6,0
STARLINK-5433,2022-175AM,2026-06-06T19:20:16.265184,15.08843333,.0001572,53.1751,339.0398,93.4754,266.6417,0,U,54793,999,19372,-.81973E-4,-.1593E-4,0
STARLINK-5436,2022-175AP,2026-06-06T15:52:14.356128,15.08836612,.0001108,53.1759,349.4947,136.9545,223.1533,0,U,54795,999,19356,-.2922E-5,-.334E-5,0
STARLINK-5415,2022-175AQ,2026-06-06T18:52:24.249792,15.08833464,.0001006,53.1750,348.8610,85.9464,274.1643,0,U,54796,999,19358,.27727E-4,.153E-5,0
STARLINK-5435,2022-175AR,2026-06-06T20:45:44.709120,15.08832392,.0001498,53.1754,3.6064,99.4272,260.6889,0,U,54797,999,19338,.41324E-4,.37E-5,0
STARLINK-5420,2022-175AS,2026-06-06T18:48:25.710624,15.08832510,.0001124,53.1847,338.8910,99.5891,260.5228,0,U,54798,999,19372,-.4674E-4,-.1031E-4,0
STARLINK-5421,2022-175AT,2026-06-06T19:14:57.852672,15.08833997,.0001055,53.1725,339.0037,66.0219,294.0883,0,U,54799,999,19372,.66162E-4,.765E-5,0
STARLINK-5428,2022-175AU,2026-06-06T06:16:36.339744,15.08834231,.00011635,53.1722,356.2415,85.9443,274.1682,0,U,54800,999,19343,.11007681E-3,.1464E-4,0
STARLINK-5429,2022-175AV,2026-06-06T07:24:09.062208,15.08832632,.00027026,53.1866,5.8230,83.8703,276.2597,0,U,54801,999,19330,.5845324E-5,-.196E-5,0
STARLINK-5426,2022-175AW,2026-06-06T16:52:26.016096,15.08021061,.0001312,53.2176,309.0716,89.0626,271.0516,0,U,54802,999,19413,.14178E-4,-.65E-6,0
STARLINK-5430,2022-175AX,2026-06-06T07:40:02.929440,15.08837215,.00014648,53.1762,5.8702,115.1138,245.0005,0,U,54803,999,19330,.52011722E-4,.54E-5,0
STARLINK-5422,2022-175AY,2026-06-06T05:37:30.029376,15.08817152,.00013388,53.1770,351.1081,88.3875,271.7270,0,U,54804,999,19350,.34763344E-3,.5246E-4,0
STARLINK-5417,2022-175AZ,2026-06-06T18:59:43.586880,15.08024109,.0001312,53.2177,348.9276,93.8868,266.2273,0,U,54805,999,19358,.48302E-4,.466E-5,0
STARLINK-5412,2022-175BA,2026-06-06T05:48:06.437088,15.08841770,.00010247,53.1713,351.1527,86.7616,273.3493,0,U,54806,999,19350,.1164489E-3,.1566E-4,0
STARLINK-5410,2022-175BB,2026-06-06T20:11:53.570400,15.08837163,.0001291,53.1722,348.4934,73.9519,286.1615,0,U,54807,999,19359,.11673E-3,.157E-4,0
STARLINK-5413,2022-175BC,2026-06-06T17:58:49.628928,15.08835132,.0001577,53.1749,334.4504,91.6753,268.4419,0,U,54808,999,19378,.48107E-4,.478E-5,0
