STARLINK-5470           
1 54776U 22175U   26153.80139267  .00000485  00000+0  48577-4 0  9990
2 54776  53.1875  21.6261 0001290  64.8920 295.2206 15.08832705192770
STARLINK-5468           
1 54777U 22175V   26157.86045711 -.00000355  00000+0 -42465-5 0  9990
2 54777  53.1763   3.5800 0001142  89.6317 270.4806 15.08832948193384
STARLINK-5450           
1 54778U 22175W   26157.81586726  .00000176  00000+0  29177-4 0  9995
2 54778  53.1796 349.0448 0001585  81.3236 278.7935 15.08836149193580
STARLINK-5447           
1 54779U 22175X   26157.81959652 -.00002670  00000+0 -15001-3 0  9991
2 54779  53.1767 349.0676 0001509  45.3915 314.7200 15.08773883193583
STARLINK-5449           
1 54780U 22175Y   26157.80113013 -.00000301  00000+0 -81525-6 0  9991
2 54780  53.1747 348.9505 0001397  83.5687 276.5463 15.08836700193581
STARLINK-5443           
1 54781U 22175Z   26157.81217917  .00000375  00000+0  41674-4 0  9999
2 54781  53.1748 349.0153 0001262  85.7922 274.3214 15.08825742193585
STARLINK-5439           
1 54783U 22175AB  26157.80849316  .00000740  00000+0  64596-4 0  9998
2 54783  53.1757 348.9957 0001783  99.1193 261.0000 15.08840584193581
STARLINK-5442           
1 54784U 22175AC  26157.85673294  .00004869  00000+0  32352-3 0  9994
2 54784  53.1813   3.5529 0001527 102.6578 257.4584 15.08872561193381
STARLINK-5440           
1 54785U 22175AD  26157.72384942  .00000034  00000+0  20245-4 0  9999
2 54785  53.1763 309.2668 0001188  93.9619 266.1508 15.08832926194135
STARLINK-5441           
1 54787U 22175AF  26157.85310066 -.00000580  00000+0 -18382-4 0  9998
2 54787  53.1788   3.5292 0001389  72.9689 287.1455 15.08828732193388
STARLINK-5399           
1 54788U 22175AG  26157.79748053 -.00005110  00000+0 -30357-3 0  9992
2 54788  53.1742 348.9309 0001372  41.3914 318.7181 15.08797315193588
STARLINK-5446           
1 54789U 22175AH  26157.59827316 -.00002002  00000+0 -10778-3 0  9993
2 54789  53.1751 334.7185 0001789  36.6440 323.4674 15.08820031193769
STARLINK-5445           
1 54790U 22175AJ  26157.26022577 -.00010980  00000+0 -67443-3 0  9990
2 54790  53.1875 351.2730 0000322 142.6248 217.4766 15.08754560193503
STARLINK-5425           
1 54791U 22175AK  26157.80481485 -.00000351  00000+0 -39902-5 0  9990
2 54791  53.1730 348.9776 0001147  81.8797 278.2325 15.08834161193586
STARLINK-5431           
1 54792U 22175AL  26157.84571823  .00000048  00000+0  21095-4 0  9995
2 54792  53.1755   3.4855 0001384  94.1804 265.9346 15.08834899193386
STARLINK-5433           
1 54793U 22175AM  26157.80574381 -.00001593  00000+0 -81973-4 0  9993
2 54793  53.1751 339.0398 0001572  93.4754 266.6417 15.08843333193726
STARLINK-5436           
1 54795U 22175AP  26157.66127727 -.00000334  00000+0 -29220-5 0  9997
2 54795  53.1759 349.4947 0001108 136.9545 223.1533 15.08836612193568
STARLINK-5415           
1 54796U 22175AQ  26157.78639178  .00000153  00000+0  27727-4 0  9995
2 54796  53.1750 348.8610 0001006  85.9464 274.1643 15.08833464193582
STARLINK-5435           
1 54797U 22175AR  26157.86510080  .00000370  00000+0  41324-4 0  9995
2 54797  53.1754   3.6064 0001498  99.4272 260.6889 15.08832392193387
STARLINK-5420           
1 54798U 22175AS  26157.78363091 -.00001031  00000+0 -46740-4 0  9999
2 54798  53.1847 338.8910 0001124  99.5891 260.5228 15.08832510193724
STARLINK-5421           
1 54799U 22175AT  26157.80205848  .00000765  00000+0  66162-4 0  9999
2 54799  53.1725 339.0037 0001055  66.0219 294.0883 15.08833997193728
STARLINK-5428           
1 54800U 22175AU  26157.26153171  .00001464  00000+0  11008-3 0  9998
2 54800  53.1722 356.2415 0001163  85.9443 274.1682 15.08834231193434
STARLINK-5429           
1 54801U 22175AV  26157.30843822 -.00000196  00000+0  58453-5 0  9992
2 54801  53.1866   5.8230 0002702  83.8703 276.2597 15.08832632193309
STARLINK-5426           
1 54802U 22175AW  26157.70307889 -.00000065  00000+0  14178-4 0  9995
2 54802  53.2176 309.0716 0001312  89.0626 271.0516 15.08021061194133
STARLINK-5430           
1 54803U 22175AX  26157.31947835  .00000540  00000+0  52012-4 0  9990
2 54803  53.1762   5.8702 0001464 115.1138 245.0005 15.08837215193305
STARLINK-5422           
1 54804U 22175AY  26157.23437534  .00005246  00000+0  34763-3 0  9992
2 54804  53.1770 351.1081 0001338  88.3875 271.7270 15.08817152193501
STARLINK-5417           
1 54805U 22175AZ  26157.79147670  .00000466  00000+0  48302-4 0  9997
2 54805  53.2177 348.9276 0001312  93.8868 266.2273 15.08024109193581
STARLINK-5412           
1 54806U 22175BA  26157.24174117  .00001566  00000+0  11645-3 0  9995
2 54806  53.1713 351.1527 0001024  86.7616 273.3493 15.08841770193500
STARLINK-5410           
1 54807U 22175BB  26157.84159225  .00001570  00000+0  11673-3 0  9991
2 54807  53.1722 348.4934 0001291  73.9519 286.1615 15.08837163193596
STARLINK-5413           
1 54808U 22175BC  26157.74918552  .00000478  00000+0  48107-4 0  9996
2 54808  53.1749 334.4504 0001577  91.6753 268.4419 15.08835132193788
